start=new Date('2022-09-26T00:00:00.000Z').valueOf();
sats=[{"RA_OF_ASC_NODE":"175.5601","CLASSIFICATION_TYPE":"U","APOAPSIS":"548.233","SEMIMAJOR_AXIS":"6925.375","TLE_LINE1":"1 46124U 20057H   22269.11278914 -.00000378  00000-0 -64715-5 0  9993","BSTAR":"-0.00000647150000","COUNTRY_CODE":"US","DECAY_DATE":null,"ELEMENT_SET_NO":"999","MEAN_MOTION":"15.06391237","EPOCH":"2022-09-26T02:42:24.981696","ECCENTRICITY":"0.00014330","MEAN_ELEMENT_THEORY":"SGP4","REV_AT_EPOCH":"11729","OBJECT_NAME":"STARLINK-1614","MEAN_ANOMALY":"275.4989","OBJECT_TYPE":"PAYLOAD","GP_ID":"213510408","TLE_LINE2":"2 46124  53.0555 175.5601 0001433  84.6164 275.4989 15.06391237117298","MEAN_MOTION_DDOT":"0.0000000000000","RCS_SIZE":"LARGE","INCLINATION":"53.0555","MEAN_MOTION_DOT":"-0.00000378","TIME_SYSTEM":"UTC","PERIOD":"95.593","CENTER_NAME":"EARTH","SITE":"AFETR","LAUNCH_DATE":"2020-08-18","OBJECT_ID":"2020-057H","ARG_OF_PERICENTER":"84.6164","NORAD_CAT_ID":"46124","FILE":"3583869","PERIAPSIS":"546.248","REF_FRAME":"TEME","EPHEMERIS_TYPE":"0"},{"MEAN_MOTION_DDOT":"0.0000000000000","TLE_LINE2":"2 46125  53.0550 215.3661 0001364  91.6185 268.4960 15.06385945116735","GP_ID":"213510694","MEAN_ANOMALY":"268.4960","OBJECT_TYPE":"PAYLOAD","OBJECT_NAME":"STARLINK-1618","REV_AT_EPOCH":"11673","MEAN_ELEMENT_THEORY":"SGP4","MEAN_MOTION":"15.06385945","EPOCH":"2022-09-26T03:51:24.654528","ECCENTRICITY":"0.00013640","ELEMENT_SET_NO":"999","COUNTRY_CODE":"US","DECAY_DATE":null,"APOAPSIS":"548.201","TLE_LINE1":"1 46125U 20057J   22269.16070202 -.00003653  00000-0 -22653-3 0  9991","BSTAR":"-0.00022653000000","SEMIMAJOR_AXIS":"6925.392","CLASSIFICATION_TYPE":"U","RA_OF_ASC_NODE":"215.3661","EPHEMERIS_TYPE":"0","REF_FRAME":"TEME","PERIAPSIS":"546.312","FILE":"3583869","NORAD_CAT_ID":"46125","LAUNCH_DATE":"2020-08-18","OBJECT_ID":"2020-057J","ARG_OF_PERICENTER":"91.6185","SITE":"AFETR","CENTER_NAME":"EARTH","PERIOD":"95.593","TIME_SYSTEM":"UTC","INCLINATION":"53.0550","MEAN_MOTION_DOT":"-0.00003653","RCS_SIZE":"LARGE"},{"MEAN_MOTION_DOT":"0.00000103","INCLINATION":"53.0542","TIME_SYSTEM":"UTC","RCS_SIZE":"LARGE","CENTER_NAME":"EARTH","SITE":"AFETR","PERIOD":"95.592","NORAD_CAT_ID":"46126","FILE":"3583828","OBJECT_ID":"2020-057K","LAUNCH_DATE":"2020-08-18","ARG_OF_PERICENTER":"88.5426","EPHEMERIS_TYPE":"0","PERIAPSIS":"546.152","REF_FRAME":"TEME","APOAPSIS":"548.283","TLE_LINE1":"1 46126U 20057K   22268.67046708  .00000103  00000-0  25795-4 0  9997","SEMIMAJOR_AXIS":"6925.352","BSTAR":"0.00002579500000","COUNTRY_CODE":"US","DECAY_DATE":null,"RA_OF_ASC_NODE":"217.5641","CLASSIFICATION_TYPE":"U","MEAN_ELEMENT_THEORY":"SGP4","ELEMENT_SET_NO":"999","MEAN_MOTION":"15.06398749","EPOCH":"2022-09-25T16:05:28.355712","ECCENTRICITY":"0.00015380","MEAN_ANOMALY":"271.5739","OBJECT_TYPE":"PAYLOAD","REV_AT_EPOCH":"11600","OBJECT_NAME":"STARLINK-1619","GP_ID":"213503775","TLE_LINE2":"2 46126  53.0542 217.5641 0001538  88.5426 271.5739 15.06398749116000","MEAN_MOTION_DDOT":"0.0000000000000"},{"PERIAPSIS":"546.381","REF_FRAME":"TEME","EPHEMERIS_TYPE":"0","LAUNCH_DATE":"2020-08-18","OBJECT_ID":"2020-057L","ARG_OF_PERICENTER":"87.9977","NORAD_CAT_ID":"46127","FILE":"3583351","PERIOD":"95.592","CENTER_NAME":"EARTH","SITE":"AFETR","RCS_SIZE":"LARGE","INCLINATION":"53.0543","MEAN_MOTION_DOT":"0.00001564","TIME_SYSTEM":"UTC","GP_ID":"213442716","TLE_LINE2":"2 46127  53.0543 199.9730 0001198  87.9977 272.1149 15.06401031116191","MEAN_MOTION_DDOT":"0.0000000000000","OBJECT_NAME":"STARLINK-1621","REV_AT_EPOCH":"11619","MEAN_ANOMALY":"272.1149","OBJECT_TYPE":"PAYLOAD","ELEMENT_SET_NO":"999","MEAN_MOTION":"15.06401031","ECCENTRICITY":"0.00011980","EPOCH":"2022-09-25T03:07:53.178240","MEAN_ELEMENT_THEORY":"SGP4","RA_OF_ASC_NODE":"199.9730","CLASSIFICATION_TYPE":"U","APOAPSIS":"548.040","BSTAR":"0.00012384000000","TLE_LINE1":"1 46127U 20057L   22268.13047660  .00001564  00000-0  12384-3 0  9998","SEMIMAJOR_AXIS":"6925.345","DECAY_DATE":null,"COUNTRY_CODE":"US"},{"GP_ID":"213510701","TLE_LINE2":"2 46128  53.0550 175.9695 0001419  98.8284 261.2866 15.06395862117271","MEAN_MOTION_DDOT":"0.0000000000000","OBJECT_TYPE":"PAYLOAD","MEAN_ANOMALY":"261.2866","OBJECT_NAME":"STARLINK-1622","REV_AT_EPOCH":"11727","MEAN_ELEMENT_THEORY":"SGP4","ELEMENT_SET_NO":"999","EPOCH":"2022-09-26T00:29:42.791424","ECCENTRICITY":"0.00014190","MEAN_MOTION":"15.06395862","TLE_LINE1":"1 46128U 20057M   22269.02063416  .00000798  00000-0  72439-4 0  9991","BSTAR":"0.00007243900000","SEMIMAJOR_AXIS":"6925.361","APOAPSIS":"548.209","COUNTRY_CODE":"US","DECAY_DATE":null,"RA_OF_ASC_NODE":"175.9695","CLASSIFICATION_TYPE":"U","EPHEMERIS_TYPE":"0","REF_FRAME":"TEME","PERIAPSIS":"546.244","FILE":"3583855","NORAD_CAT_ID":"46128","ARG_OF_PERICENTER":"98.8284","LAUNCH_DATE":"2020-08-18","OBJECT_ID":"2020-057M","CENTER_NAME":"EARTH","SITE":"AFETR","PERIOD":"95.592","MEAN_MOTION_DOT":"0.00000798","INCLINATION":"53.0550","TIME_SYSTEM":"UTC","RCS_SIZE":"LARGE"},{"REF_FRAME":"TEME","PERIAPSIS":"546.219","EPHEMERIS_TYPE":"0","ARG_OF_PERICENTER":"93.7343","LAUNCH_DATE":"2020-08-18","OBJECT_ID":"2020-057N","NORAD_CAT_ID":"46129","FILE":"3583855","PERIOD":"95.592","CENTER_NAME":"EARTH","SITE":"AFETR","RCS_SIZE":"LARGE","MEAN_MOTION_DOT":"0.00000704","INCLINATION":"53.0541","TIME_SYSTEM":"UTC","TLE_LINE2":"2 46129  53.0541 175.8046 0001448  93.7343 266.3811 15.06397160117283","GP_ID":"213510413","MEAN_MOTION_DDOT":"0.0000000000000","OBJECT_NAME":"STARLINK-1623","REV_AT_EPOCH":"11728","OBJECT_TYPE":"PAYLOAD","MEAN_ANOMALY":"266.3811","ELEMENT_SET_NO":"999","EPOCH":"2022-09-26T01:28:06.030624","ECCENTRICITY":"0.00014480","MEAN_MOTION":"15.06397160","MEAN_ELEMENT_THEORY":"SGP4","RA_OF_ASC_NODE":"175.8046","CLASSIFICATION_TYPE":"U","TLE_LINE1":"1 46129U 20057N   22269.06118091  .00000704  00000-0  66177-4 0  9995","BSTAR":"0.00006617700000","SEMIMAJOR_AXIS":"6925.357","APOAPSIS":"548.225","DECAY_DATE":null,"COUNTRY_CODE":"US"},{"GP_ID":"213510439","TLE_LINE2":"2 46130  53.0545 175.9427 0001467  76.9420 283.1733 15.06388621117274","MEAN_MOTION_DDOT":"0.0000000000000","REV_AT_EPOCH":"11727","OBJECT_NAME":"STARLINK-1624","MEAN_ANOMALY":"283.1733","OBJECT_TYPE":"PAYLOAD","ELEMENT_SET_NO":"999","MEAN_MOTION":"15.06388621","EPOCH":"2022-09-26T00:40:20.133120","ECCENTRICITY":"0.00014670","MEAN_ELEMENT_THEORY":"SGP4","RA_OF_ASC_NODE":"175.9427","CLASSIFICATION_TYPE":"U","APOAPSIS":"548.264","SEMIMAJOR_AXIS":"6925.383","TLE_LINE1":"1 46130U 20057P   22269.02801080 -.00000678  00000-0 -26638-4 0  9990","BSTAR":"-0.00002663800000","COUNTRY_CODE":"US","DECAY_DATE":null,"PERIAPSIS":"546.232","REF_FRAME":"TEME","EPHEMERIS_TYPE":"0","LAUNCH_DATE":"2020-08-18","OBJECT_ID":"2020-057P","ARG_OF_PERICENTER":"76.9420","FILE":"3583857","NORAD_CAT_ID":"46130","PERIOD":"95.593","CENTER_NAME":"EARTH","SITE":"AFETR","RCS_SIZE":"LARGE","MEAN_MOTION_DOT":"-0.00000678","INCLINATION":"53.0545","TIME_SYSTEM":"UTC"},{"ECCENTRICITY":"0.00014540","EPOCH":"2022-09-26T00:58:54.721632","MEAN_MOTION":"15.06370635","ELEMENT_SET_NO":"999","MEAN_ELEMENT_THEORY":"SGP4","CLASSIFICATION_TYPE":"U","RA_OF_ASC_NODE":"195.8809","COUNTRY_CODE":"US","DECAY_DATE":null,"SEMIMAJOR_AXIS":"6925.439","TLE_LINE1":"1 46131U 20057Q   22269.04091113  .00005652  00000-0  39833-3 0  9996","BSTAR":"0.00039833000000","APOAPSIS":"548.311","MEAN_MOTION_DDOT":"0.0000000000000","TLE_LINE2":"2 46131  53.0540 195.8809 0001454  82.8816 277.2338 15.06370635116995","GP_ID":"213510729","REV_AT_EPOCH":"11699","OBJECT_NAME":"STARLINK-1625","OBJECT_TYPE":"PAYLOAD","MEAN_ANOMALY":"277.2338","PERIOD":"95.594","SITE":"AFETR","CENTER_NAME":"EARTH","RCS_SIZE":"LARGE","TIME_SYSTEM":"UTC","MEAN_MOTION_DOT":"0.00005652","INCLINATION":"53.0540","PERIAPSIS":"546.297","REF_FRAME":"TEME","EPHEMERIS_TYPE":"0","ARG_OF_PERICENTER":"82.8816","LAUNCH_DATE":"2020-08-18","OBJECT_ID":"2020-057Q","FILE":"3583857","NORAD_CAT_ID":"46131"},{"FILE":"3583860","NORAD_CAT_ID":"46132","OBJECT_ID":"2020-057R","LAUNCH_DATE":"2020-08-18","ARG_OF_PERICENTER":"108.4233","EPHEMERIS_TYPE":"0","PERIAPSIS":"546.069","REF_FRAME":"TEME","TIME_SYSTEM":"UTC","MEAN_MOTION_DOT":"-0.00001103","INCLINATION":"53.0536","RCS_SIZE":"LARGE","SITE":"AFETR","CENTER_NAME":"EARTH","PERIOD":"95.592","MEAN_ANOMALY":"251.6938","OBJECT_TYPE":"PAYLOAD","OBJECT_NAME":"STARLINK-1630","REV_AT_EPOCH":"11672","MEAN_MOTION_DDOT":"0.0000000000000","GP_ID":"213510482","TLE_LINE2":"2 46132  53.0536 215.7291 0001669 108.4233 251.6938 15.06396360116720","COUNTRY_CODE":"US","DECAY_DATE":null,"APOAPSIS":"548.381","SEMIMAJOR_AXIS":"6925.360","TLE_LINE1":"1 46132U 20057R   22269.07960841 -.00001103  00000-0 -55137-4 0  9998","BSTAR":"-0.00005513700000","CLASSIFICATION_TYPE":"U","RA_OF_ASC_NODE":"215.7291","MEAN_ELEMENT_THEORY":"SGP4","MEAN_MOTION":"15.06396360","ECCENTRICITY":"0.00016690","EPOCH":"2022-09-26T01:54:38.166624","ELEMENT_SET_NO":"999"},{"RA_OF_ASC_NODE":"175.4283","CLASSIFICATION_TYPE":"U","APOAPSIS":"548.298","SEMIMAJOR_AXIS":"6925.370","TLE_LINE1":"1 46133U 20057S   22269.14595713 -.00002541  00000-0 -15180-3 0  9999","BSTAR":"-0.00015180000000","DECAY_DATE":null,"COUNTRY_CODE":"US","ELEMENT_SET_NO":"999","MEAN_MOTION":"15.06393060","EPOCH":"2022-09-26T03:30:10.696032","ECCENTRICITY":"0.00015350","MEAN_ELEMENT_THEORY":"SGP4","REV_AT_EPOCH":"11729","OBJECT_NAME":"STARLINK-1637","MEAN_ANOMALY":"262.8431","OBJECT_TYPE":"PAYLOAD","GP_ID":"213510795","TLE_LINE2":"2 46133  53.0555 175.4283 0001535  97.2732 262.8431 15.06393060117295","MEAN_MOTION_DDOT":"0.0000000000000","RCS_SIZE":"LARGE","INCLINATION":"53.0555","MEAN_MOTION_DOT":"-0.00002541","TIME_SYSTEM":"UTC","PERIOD":"95.593","CENTER_NAME":"EARTH","SITE":"AFETR","LAUNCH_DATE":"2020-08-18","OBJECT_ID":"2020-057S","ARG_OF_PERICENTER":"97.2732","FILE":"3583862","NORAD_CAT_ID":"46133","REF_FRAME":"TEME","PERIAPSIS":"546.172","EPHEMERIS_TYPE":"0"}];
